CCSDS_OMM_VERS = 2.0
CREATION_DATE  = 
ORIGINATOR     = 

OBJECT_NAME    = ATLAS CENTAUR R/B
OBJECT_ID      = 1972-065B
CENTER_NAME    = EARTH
REF_FRAME      = TEME
TIME_SYSTEM    = UTC
MEAN_ELEMENT_THEORY = SGP/SGP4

EPOCH          = 2025-11-14T21:12:36.163296
MEAN_MOTION    = 14.77306357
ECCENTRICITY   = .0033211
INCLINATION    = 35.0015
RA_OF_ASC_NODE = 258.3608
ARG_OF_PERICENTER = 125.3765
MEAN_ANOMALY   = 235.0046

EPHEMERIS_TYPE = 0
CLASSIFICATION_TYPE = U
NORAD_CAT_ID   = 6155
ELEMENT_SET_NO = 999
REV_AT_EPOCH   = 82427
BSTAR          = .34139E-3
MEAN_MOTION_DOT = .2463E-4
MEAN_MOTION_DDOT = 0

CCSDS_OMM_VERS = 2.0
CREATION_DATE  = 
ORIGINATOR     = 

OBJECT_NAME    = SL-8 R/B
OBJECT_ID      = 1975-112B
CENTER_NAME    = EARTH
REF_FRAME      = TEME
TIME_SYSTEM    = UTC
MEAN_ELEMENT_THEORY = SGP/SGP4

EPOCH          = 2025-11-15T05:08:27.071808
MEAN_MOTION    = 14.38120421
ECCENTRICITY   = .0015851
INCLINATION    = 74.0609
RA_OF_ASC_NODE = 229.4841
ARG_OF_PERICENTER = 344.6804
MEAN_ANOMALY   = 15.3868

EPHEMERIS_TYPE = 0
CLASSIFICATION_TYPE = U
NORAD_CAT_ID   = 8459
ELEMENT_SET_NO = 999
REV_AT_EPOCH   = 61541
BSTAR          = .21212E-3
MEAN_MOTION_DOT = .618E-5
MEAN_MOTION_DDOT = 0

CCSDS_OMM_VERS = 2.0
CREATION_DATE  = 
ORIGINATOR     = 

OBJECT_NAME    = SL-3 R/B
OBJECT_ID      = 1977-057B
CENTER_NAME    = EARTH
REF_FRAME      = TEME
TIME_SYSTEM    = UTC
MEAN_ELEMENT_THEORY = SGP/SGP4

EPOCH          = 2025-11-15T10:40:35.768352
MEAN_MOTION    = 15.42083455
ECCENTRICITY   = .0007373
INCLINATION    = 97.5676
RA_OF_ASC_NODE = 121.7303
ARG_OF_PERICENTER = 344.9886
MEAN_ANOMALY   = 15.1140

EPHEMERIS_TYPE = 0
CLASSIFICATION_TYPE = U
NORAD_CAT_ID   = 10114
ELEMENT_SET_NO = 999
REV_AT_EPOCH   = 65070
BSTAR          = .35469E-3
MEAN_MOTION_DOT = .15095E-3
MEAN_MOTION_DDOT = 0

CCSDS_OMM_VERS = 2.0
CREATION_DATE  = 
ORIGINATOR     = 

OBJECT_NAME    = SEASAT 1
OBJECT_ID      = 1978-064A
CENTER_NAME    = EARTH
REF_FRAME      = TEME
TIME_SYSTEM    = UTC
MEAN_ELEMENT_THEORY = SGP/SGP4

EPOCH          = 2025-11-15T11:53:15.845856
MEAN_MOTION    = 14.46017362
ECCENTRICITY   = .0002286
INCLINATION    = 108.0069
RA_OF_ASC_NODE = 245.8843
ARG_OF_PERICENTER = 254.6084
MEAN_ANOMALY   = 105.4809

EPHEMERIS_TYPE = 0
CLASSIFICATION_TYPE = U
NORAD_CAT_ID   = 10967
ELEMENT_SET_NO = 999
REV_AT_EPOCH   = 49000
BSTAR          = .30996E-3
MEAN_MOTION_DOT = .969E-5
MEAN_MOTION_DDOT = 0

CCSDS_OMM_VERS = 2.0
CREATION_DATE  = 
ORIGINATOR     = 

OBJECT_NAME    = SL-14 R/B
OBJECT_ID      = 1979-011B
CENTER_NAME    = EARTH
REF_FRAME      = TEME
TIME_SYSTEM    = UTC
MEAN_ELEMENT_THEORY = SGP/SGP4

EPOCH          = 2025-11-15T10:05:36.352032
MEAN_MOTION    = 14.91723381
ECCENTRICITY   = .0017699
INCLINATION    = 82.5258
RA_OF_ASC_NODE = 204.9496
ARG_OF_PERICENTER = 79.9343
MEAN_ANOMALY   = 280.3872

EPHEMERIS_TYPE = 0
CLASSIFICATION_TYPE = U
NORAD_CAT_ID   = 11267
ELEMENT_SET_NO = 999
REV_AT_EPOCH   = 51174
BSTAR          = .11963E-3
MEAN_MOTION_DOT = .1233E-4
MEAN_MOTION_DDOT = 0

CCSDS_OMM_VERS = 2.0
CREATION_DATE  = 
ORIGINATOR     = 

OBJECT_NAME    = SL-8 R/B
OBJECT_ID      = 1979-089B
CENTER_NAME    = EARTH
REF_FRAME      = TEME
TIME_SYSTEM    = UTC
MEAN_ELEMENT_THEORY = SGP/SGP4

EPOCH          = 2025-11-15T10:30:24.001056
MEAN_MOTION    = 14.42256714
ECCENTRICITY   = .0014932
INCLINATION    = 74.0678
RA_OF_ASC_NODE = 302.5103
ARG_OF_PERICENTER = 148.0092
MEAN_ANOMALY   = 212.1974

EPHEMERIS_TYPE = 0
CLASSIFICATION_TYPE = U
NORAD_CAT_ID   = 11574
ELEMENT_SET_NO = 999
REV_AT_EPOCH   = 41963
BSTAR          = .20676E-3
MEAN_MOTION_DOT = .656E-5
MEAN_MOTION_DDOT = 0

CCSDS_OMM_VERS = 2.0
CREATION_DATE  = 
ORIGINATOR     = 

OBJECT_NAME    = SL-14 R/B
OBJECT_ID      = 1980-005B
CENTER_NAME    = EARTH
REF_FRAME      = TEME
TIME_SYSTEM    = UTC
MEAN_ELEMENT_THEORY = SGP/SGP4

EPOCH          = 2025-11-15T06:59:38.260320
MEAN_MOTION    = 14.90740895
ECCENTRICITY   = .0015761
INCLINATION    = 82.5159
RA_OF_ASC_NODE = 55.7254
ARG_OF_PERICENTER = 179.7040
MEAN_ANOMALY   = 180.4191

EPHEMERIS_TYPE = 0
CLASSIFICATION_TYPE = U
NORAD_CAT_ID   = 11672
ELEMENT_SET_NO = 999
REV_AT_EPOCH   = 45944
BSTAR          = .14199E-3
MEAN_MOTION_DOT = .1422E-4
MEAN_MOTION_DDOT = 0

CCSDS_OMM_VERS = 2.0
CREATION_DATE  = 
ORIGINATOR     = 

OBJECT_NAME    = SL-8 R/B
OBJECT_ID      = 1981-003B
CENTER_NAME    = EARTH
REF_FRAME      = TEME
TIME_SYSTEM    = UTC
MEAN_ELEMENT_THEORY = SGP/SGP4

EPOCH          = 2025-11-15T12:02:58.061760
MEAN_MOTION    = 15.05679782
ECCENTRICITY   = .0282302
INCLINATION    = 82.9345
RA_OF_ASC_NODE = 35.2454
ARG_OF_PERICENTER = 214.5199
MEAN_ANOMALY   = 143.7419

EPHEMERIS_TYPE = 0
CLASSIFICATION_TYPE = U
NORAD_CAT_ID   = 12139
ELEMENT_SET_NO = 999
REV_AT_EPOCH   = 29746
BSTAR          = .80152E-3
MEAN_MOTION_DOT = .29225E-3
MEAN_MOTION_DDOT = 0

CCSDS_OMM_VERS = 2.0
CREATION_DATE  = 
ORIGINATOR     = 

OBJECT_NAME    = SL-3 R/B
OBJECT_ID      = 1981-046B
CENTER_NAME    = EARTH
REF_FRAME      = TEME
TIME_SYSTEM    = UTC
MEAN_ELEMENT_THEORY = SGP/SGP4

EPOCH          = 2025-11-15T10:55:58.726848
MEAN_MOTION    = 15.38823076
ECCENTRICITY   = .0020582
INCLINATION    = 81.2333
RA_OF_ASC_NODE = 66.5516
ARG_OF_PERICENTER = 58.0831
MEAN_ANOMALY   = 302.2409

EPHEMERIS_TYPE = 0
CLASSIFICATION_TYPE = U
NORAD_CAT_ID   = 12465
ELEMENT_SET_NO = 999
REV_AT_EPOCH   = 42084
BSTAR          = .37957E-3
MEAN_MOTION_DOT = .14715E-3
MEAN_MOTION_DDOT = 0

CCSDS_OMM_VERS = 2.0
CREATION_DATE  = 
ORIGINATOR     = 

OBJECT_NAME    = METEOR PRIRODA
OBJECT_ID      = 1981-065A
CENTER_NAME    = EARTH
REF_FRAME      = TEME
TIME_SYSTEM    = UTC
MEAN_ELEMENT_THEORY = SGP/SGP4

EPOCH          = 2025-11-15T02:54:31.993632
MEAN_MOTION    = 16.17899399
ECCENTRICITY   = .0004769
INCLINATION    = 97.4626
RA_OF_ASC_NODE = 24.1254
ARG_OF_PERICENTER = 261.7190
MEAN_ANOMALY   = 98.3557

EPHEMERIS_TYPE = 0
CLASSIFICATION_TYPE = U
NORAD_CAT_ID   = 12585
ELEMENT_SET_NO = 999
REV_AT_EPOCH   = 42637
BSTAR          = .70868E-3
MEAN_MOTION_DOT = .1137386E-1
MEAN_MOTION_DDOT = .24574E-5

CCSDS_OMM_VERS = 2.0
CREATION_DATE  = 
ORIGINATOR     = 

OBJECT_NAME    = SL-3 R/B
OBJECT_ID      = 1981-103B
CENTER_NAME    = EARTH
REF_FRAME      = TEME
TIME_SYSTEM    = UTC
MEAN_ELEMENT_THEORY = SGP/SGP4

EPOCH          = 2025-11-15T11:19:49.045152
MEAN_MOTION    = 15.19764733
ECCENTRICITY   = .0012357
INCLINATION    = 81.1606
RA_OF_ASC_NODE = 347.2802
ARG_OF_PERICENTER = 319.6127
MEAN_ANOMALY   = 40.4185

EPHEMERIS_TYPE = 0
CLASSIFICATION_TYPE = U
NORAD_CAT_ID   = 12904
ELEMENT_SET_NO = 999
REV_AT_EPOCH   = 95587
BSTAR          = .39227E-3
MEAN_MOTION_DOT = .8432E-4
MEAN_MOTION_DDOT = 0

CCSDS_OMM_VERS = 2.0
CREATION_DATE  = 
ORIGINATOR     = 

OBJECT_NAME    = SL-3 R/B
OBJECT_ID      = 1982-013B
CENTER_NAME    = EARTH
REF_FRAME      = TEME
TIME_SYSTEM    = UTC
MEAN_ELEMENT_THEORY = SGP/SGP4

EPOCH          = 2025-11-15T11:19:18.695424
MEAN_MOTION    = 15.20745143
ECCENTRICITY   = .0022278
INCLINATION    = 81.1731
RA_OF_ASC_NODE = 294.5215
ARG_OF_PERICENTER = 200.8052
MEAN_ANOMALY   = 159.2275

EPHEMERIS_TYPE = 0
CLASSIFICATION_TYPE = U
NORAD_CAT_ID   = 13068
ELEMENT_SET_NO = 999
REV_AT_EPOCH   = 38698
BSTAR          = .29013E-3
MEAN_MOTION_DOT = .6452E-4
MEAN_MOTION_DDOT = 0

