ATLAS CENTAUR R/B       
1 06155U 72065B   25318.88375189  .00002463  00000+0  34139-3 0  9992
2 06155  35.0015 258.3608 0033211 125.3765 235.0046 14.77306357824270
SL-8 R/B                
1 08459U 75112B   25319.21420222  .00000618  00000+0  21212-3 0  9992
2 08459  74.0609 229.4841 0015851 344.6804  15.3868 14.38120421615417
SL-3 R/B                
1 10114U 77057B   25319.44485843  .00015095  00000+0  35469-3 0  9992
2 10114  97.5676 121.7303 0007373 344.9886  15.1140 15.42083455650705
SEASAT 1                
1 10967U 78064A   25319.49532229  .00000969  00000+0  30996-3 0  9997
2 10967 108.0069 245.8843 0002286 254.6084 105.4809 14.46017362490004
SL-14 R/B               
1 11267U 79011B   25319.42055963  .00001233  00000+0  11963-3 0  9990
2 11267  82.5258 204.9496 0017699  79.9343 280.3872 14.91723381511747
SL-8 R/B                
1 11574U 79089B   25319.43777779  .00000656  00000+0  20676-3 0  9992
2 11574  74.0678 302.5103 0014932 148.0092 212.1974 14.42256714419634
SL-14 R/B               
1 11672U 80005B   25319.29141505  .00001422  00000+0  14199-3 0  9992
2 11672  82.5159  55.7254 0015761 179.7040 180.4191 14.90740895459442
SL-8 R/B                
1 12139U 81003B   25319.50206090  .00029225  00000+0  80152-3 0  9998
2 12139  82.9345  35.2454 0282302 214.5199 143.7419 15.05679782297467
SL-3 R/B                
1 12465U 81046B   25319.45554082  .00014715  00000+0  37957-3 0  9991
2 12465  81.2333  66.5516 0020582  58.0831 302.2409 15.38823076420842
METEOR PRIRODA          
1 12585U 81065A   25319.12120363  .01137386  24574-5  70868-3 0  9997
2 12585  97.4626  24.1254 0004769 261.7190  98.3557 16.17899399426378
SL-3 R/B                
1 12904U 81103B   25319.47209543  .00008432  00000+0  39227-3 0  9995
2 12904  81.1606 347.2802 0012357 319.6127  40.4185 15.19764733955875
SL-3 R/B                
1 13068U 82013B   25319.47174416  .00006452  00000+0  29013-3 0  9990
2 13068  81.1731 294.5215 0022278 200.8052 159.2275 15.20745143386984
